ORBCOMM FM115           
1 41186U 15081H   25040.96672916  .00001596  00000+0  34916-3 0  9998
2 41186  46.9985 284.4512 0000826 205.8949 154.1897 14.62064547489153
ORBCOMM FM108           
1 41187U 15081J   25040.91511679  .00002400  00000+0  55652-3 0  9997
2 41187  47.0057 347.8704 0002184  71.1700 288.9423 14.57761574488227
ORBCOMM FM117           
1 41188U 15081K   25040.88146945  .00002349  00000+0  54549-3 0  9990
2 41188  47.0019 346.8351 0002460  83.9516 276.1649 14.57769065488262
ORBCOMM FM116           
1 41189U 15081L   25040.80333247  .00001844  00000+0  43647-3 0  9992
2 41189  47.0022  77.0574 0001773 222.2469 137.8280 14.57740997487062
